[{"OBJECT_NAME":"STARLINK-34997","OBJECT_ID":"2025-192Q","EPOCH":"2026-03-09T22:00:01.999584","MEAN_MOTION":15.30190228,"ECCENTRICITY":8.283e-5,"INCLINATION":53.1578,"RA_OF_ASC_NODE":231.3164,"ARG_OF_PERICENTER":37.1136,"MEAN_ANOMALY":145.9473,"EPHEMERIS_TYPE":0,"CLASSIFICATION_TYPE":"U","NORAD_CAT_ID":65418,"ELEMENT_SET_NO":999,"REV_AT_EPOCH":578,"BSTAR":0.002464819,"MEAN_MOTION_DOT":0.00073342,"MEAN_MOTION_DDOT":0},{"OBJECT_NAME":"PEGASUS DEB","OBJECT_ID":"1994-029AER","EPOCH":"2026-02-26T06:39:21.581568","MEAN_MOTION":15.03561005,"ECCENTRICITY":0.01227406,"INCLINATION":81.7323,"RA_OF_ASC_NODE":356.2383,"ARG_OF_PERICENTER":77.7128,"MEAN_ANOMALY":283.7806,"EPHEMERIS_TYPE":0,"CLASSIFICATION_TYPE":"U","NORAD_CAT_ID":39306,"ELEMENT_SET_NO":999,"REV_AT_EPOCH":9218,"BSTAR":0.0046128236,"MEAN_MOTION_DOT":0.00074995,"MEAN_MOTION_DDOT":0}]
